[
    {
        "Altitude(m)": 563364.307685089,
        "Argument of Periapsis(deg)": 0.013245982221427002,
        "Eccentricity": 0.0,
        "Inclination(deg)": 53.0,
        "Latitude(deg)": -32.24198502565923,
        "Longitude(deg)": -69.78692524898692,
        "Mean Anomaly(deg)": -41.634914264844774,
        "RAAN(deg)": 59.980286737056026,
        "Satellite Name": "Starlink Shell 1 282",
        "Satellite Number": 282,
        "Semi-Major Axis(m)": 6931778.249405717,
        "Time(s)": 380
    },
    {
        "Altitude(m)": 563189.0165245557,
        "Argument of Periapsis(deg)": 0.013594560700938237,
        "Eccentricity": 0.0,
        "Inclination(deg)": 53.0,
        "Latitude(deg)": -31.79892335722383,
        "Longitude(deg)": -69.30632540775434,
        "Mean Anomaly(deg)": -41.008083061288126,
        "RAAN(deg)": 59.97976796697856,
        "Satellite Name": "Starlink Shell 1 282",
        "Satellite Number": 282,
        "Semi-Major Axis(m)": 6931778.249405717,
        "Time(s)": 390
    },
    {
        "Altitude(m)": 563013.6249427529,
        "Argument of Periapsis(deg)": 0.013943139180449475,
        "Eccentricity": 0.0,
        "Inclination(deg)": 53.0,
        "Latitude(deg)": -31.353698983016077,
        "Longitude(deg)": -68.83067469974212,
        "Mean Anomaly(deg)": -40.381251857731414,
        "RAAN(deg)": 59.97924919690108,
        "Satellite Name": "Starlink Shell 1 282",
        "Satellite Number": 282,
        "Semi-Major Axis(m)": 6931778.249405717,
        "Time(s)": 400
    },
    {
        "Altitude(m)": 562838.199123611,
        "Argument of Periapsis(deg)": 0.014291717659960712,
        "Eccentricity": 0.0,
        "Inclination(deg)": 53.0,
        "Latitude(deg)": -30.90636765499596,
        "Longitude(deg)": -68.35986415478796,
        "Mean Anomaly(deg)": -39.754420654174645,
        "RAAN(deg)": 59.97873042682361,
        "Satellite Name": "Starlink Shell 1 282",
        "Satellite Number": 282,
        "Semi-Major Axis(m)": 6931778.249405717,
        "Time(s)": 410
    },
    {
        "Altitude(m)": 562662.8051204486,
        "Argument of Periapsis(deg)": 0.014640296139471948,
        "Eccentricity": 0.0,
        "Inclination(deg)": 53.0,
        "Latitude(deg)": -30.456983880133624,
        "Longitude(deg)": -67.89378651363766,
        "Mean Anomaly(deg)": -39.12758945061795,
        "RAAN(deg)": 59.97821165674614,
        "Satellite Name": "Starlink Shell 1 282",
        "Satellite Number": 282,
        "Semi-Major Axis(m)": 6931778.249405717,
        "Time(s)": 420
    },
    {
        "Altitude(m)": 562487.508826363,
        "Argument of Periapsis(deg)": 0.014988874618983185,
        "Eccentricity": 0.0,
        "Inclination(deg)": 53.0,
        "Latitude(deg)": -30.005600952383368,
        "Longitude(deg)": -67.43233574952247,
        "Mean Anomaly(deg)": -38.500758247061235,
        "RAAN(deg)": 59.97769288666866,
        "Satellite Name": "Starlink Shell 1 282",
        "Satellite Number": 282,
        "Semi-Major Axis(m)": 6931778.249405717,
        "Time(s)": 430
    },
    {
        "Altitude(m)": 562312.3759447112,
        "Argument of Periapsis(deg)": 0.015337453098494424,
        "Eccentricity": 0.0,
        "Inclination(deg)": 53.0,
        "Latitude(deg)": -29.552270984403606,
        "Longitude(deg)": -66.97540658503253,
        "Mean Anomaly(deg)": -37.87392704350452,
        "RAAN(deg)": 59.97717411659119,
        "Satellite Name": "Starlink Shell 1 282",
        "Satellite Number": 282,
        "Semi-Major Axis(m)": 6931778.249405717,
        "Time(s)": 440
    },
    {
        "Altitude(m)": 562137.4719596332,
        "Argument of Periapsis(deg)": 0.01568603157800566,
        "Eccentricity": 0.0,
        "Inclination(deg)": 53.0,
        "Latitude(deg)": -29.097044938978797,
        "Longitude(deg)": -66.52289551749996,
        "Mean Anomaly(deg)": -37.24709583994782,
        "RAAN(deg)": 59.97665534651372,
        "Satellite Name": "Starlink Shell 1 282",
        "Satellite Number": 282,
        "Semi-Major Axis(m)": 6931778.249405717,
        "Time(s)": 450
    },
    {
        "Altitude(m)": 561962.8621067266,
        "Argument of Periapsis(deg)": 0.0160346100575169,
        "Eccentricity": 0.0,
        "Inclination(deg)": 53.0,
        "Latitude(deg)": -28.63997266010314,
        "Longitude(deg)": -66.07470032746163,
        "Mean Anomaly(deg)": -36.620264636391056,
        "RAAN(deg)": 59.97613657643625,
        "Satellite Name": "Starlink Shell 1 282",
        "Satellite Number": 282,
        "Semi-Major Axis(m)": 6931778.249405717,
        "Time(s)": 460
    },
    {
        "Altitude(m)": 561788.6113437652,
        "Argument of Periapsis(deg)": 0.016383188537028134,
        "Eccentricity": 0.0,
        "Inclination(deg)": 53.0,
        "Latitude(deg)": -28.18110290369219,
        "Longitude(deg)": -65.6307195833792,
        "Mean Anomaly(deg)": -35.993433432834344,
        "RAAN(deg)": 59.97561780635878,
        "Satellite Name": "Starlink Shell 1 282",
        "Satellite Number": 282,
        "Semi-Major Axis(m)": 6931778.249405717,
        "Time(s)": 470
    },
    {
        "Altitude(m)": 561614.7843215668,
        "Argument of Periapsis(deg)": 0.01673176701653937,
        "Eccentricity": 0.0,
        "Inclination(deg)": 53.0,
        "Latitude(deg)": -27.720483367893728,
        "Longitude(deg)": -65.19085365577597,
        "Mean Anomaly(deg)": -35.36660222927769,
        "RAAN(deg)": 59.97509903628131,
        "Satellite Name": "Starlink Shell 1 282",
        "Satellite Number": 282,
        "Semi-Major Axis(m)": 6931778.249405717,
        "Time(s)": 480
    },
    {
        "Altitude(m)": 561441.4453550113,
        "Argument of Periapsis(deg)": 0.017080345496050607,
        "Eccentricity": 0.0,
        "Inclination(deg)": 53.0,
        "Latitude(deg)": -27.258160722970615,
        "Longitude(deg)": -64.75500421530887,
        "Mean Anomaly(deg)": -34.73977102572098,
        "RAAN(deg)": 59.97458026620383,
        "Satellite Name": "Starlink Shell 1 282",
        "Satellite Number": 282,
        "Semi-Major Axis(m)": 6931778.249405717,
        "Time(s)": 490
    },
    {
        "Altitude(m)": 561268.6583941677,
        "Argument of Periapsis(deg)": 0.017428923975561842,
        "Eccentricity": 0.0,
        "Inclination(deg)": 53.0,
        "Latitude(deg)": -26.794180640734616,
        "Longitude(deg)": -64.32307372790382,
        "Mean Anomaly(deg)": -34.112939822164215,
        "RAAN(deg)": 59.97406149612636,
        "Satellite Name": "Starlink Shell 1 282",
        "Satellite Number": 282,
        "Semi-Major Axis(m)": 6931778.249405717,
        "Time(s)": 500
    },
    {
        "Altitude(m)": 561096.4869956289,
        "Argument of Periapsis(deg)": 0.01777750245507308,
        "Eccentricity": 0.0,
        "Inclination(deg)": 53.0,
        "Latitude(deg)": -26.328587823514205,
        "Longitude(deg)": -63.89496646006444,
        "Mean Anomaly(deg)": -33.48610861860751,
        "RAAN(deg)": 59.97354272604889,
        "Satellite Name": "Starlink Shell 1 282",
        "Satellite Number": 282,
        "Semi-Major Axis(m)": 6931778.249405717,
        "Time(s)": 510
    },
    {
        "Altitude(m)": 560924.9942939848,
        "Argument of Periapsis(deg)": 0.018126080934584315,
        "Eccentricity": 0.0,
        "Inclination(deg)": 53.0,
        "Latitude(deg)": -25.86142603263841,
        "Longitude(deg)": -63.470587968827374,
        "Mean Anomaly(deg)": -32.859277415050805,
        "RAAN(deg)": 59.973023955971414,
        "Satellite Name": "Starlink Shell 1 282",
        "Satellite Number": 282,
        "Semi-Major Axis(m)": 6931778.249405717,
        "Time(s)": 520
    },
    {
        "Altitude(m)": 560754.2429735234,
        "Argument of Periapsis(deg)": 0.018474659414095554,
        "Eccentricity": 0.0,
        "Inclination(deg)": 53.0,
        "Latitude(deg)": -25.392738116427104,
        "Longitude(deg)": -63.04984458944748,
        "Mean Anomaly(deg)": -32.23244621149408,
        "RAAN(deg)": 59.97250518589393,
        "Satellite Name": "Starlink Shell 1 282",
        "Satellite Number": 282,
        "Semi-Major Axis(m)": 6931778.249405717,
        "Time(s)": 530
    },
    {
        "Altitude(m)": 560584.2952400924,
        "Argument of Periapsis(deg)": 0.018823237893606792,
        "Eccentricity": 0.0,
        "Inclination(deg)": 53.0,
        "Latitude(deg)": -24.922566037677957,
        "Longitude(deg)": -62.63264443388035,
        "Mean Anomaly(deg)": -31.605615007937388,
        "RAAN(deg)": 59.971986415816474,
        "Satellite Name": "Starlink Shell 1 282",
        "Satellite Number": 282,
        "Semi-Major Axis(m)": 6931778.249405717,
        "Time(s)": 540
    },
    {
        "Altitude(m)": 560415.2127932357,
        "Argument of Periapsis(deg)": 0.019171816373118027,
        "Eccentricity": 0.0,
        "Inclination(deg)": 53.0,
        "Latitude(deg)": -24.450950900641526,
        "Longitude(deg)": -62.21889687449578,
        "Mean Anomaly(deg)": -30.97878380438062,
        "RAAN(deg)": 59.97146764573899,
        "Satellite Name": "Starlink Shell 1 282",
        "Satellite Number": 282,
        "Semi-Major Axis(m)": 6931778.249405717,
        "Time(s)": 550
    },
    {
        "Altitude(m)": 560247.0567985167,
        "Argument of Periapsis(deg)": 0.019520394852629266,
        "Eccentricity": 0.0,
        "Inclination(deg)": 53.0,
        "Latitude(deg)": -23.97793297748132,
        "Longitude(deg)": -61.808512026065806,
        "Mean Anomaly(deg)": -30.351952600823957,
        "RAAN(deg)": 59.97094887566151,
        "Satellite Name": "Starlink Shell 1 282",
        "Satellite Number": 282,
        "Semi-Major Axis(m)": 6931778.249405717,
        "Time(s)": 560
    }
]